{
    "links": {
        "self": "http://www.neowsapp.com/rest/v1/neo/3425609?api_key=iIulBulltgU6a56xZRHN4H3l9WmuAYTsLGpBGhQ2"
    },
    "id": "3425609",
    "neo_reference_id": "3425609",
    "name": "(2008 QM2)",
    "designation": "2008 QM2",
    "nasa_jpl_url": "http://ssd.jpl.nasa.gov/sbdb.cgi?sstr=3425609",
    "absolute_magnitude_h": 23.8,
    "estimated_diameter": {
        "kilometers": {
            "estimated_diameter_min": 0.046190746,
            "estimated_diameter_max": 0.1032856481
        },
        "meters": {
            "estimated_diameter_min": 46.1907460282,
            "estimated_diameter_max": 103.2856480504
        },
        "miles": {
            "estimated_diameter_min": 0.0287015901,
            "estimated_diameter_max": 0.0641787064
        },
        "feet": {
            "estimated_diameter_min": 151.544447199,
            "estimated_diameter_max": 338.8636855496
        }
    },
    "is_potentially_hazardous_asteroid": false,
    "close_approach_data": [
        {
            "close_approach_date": "2006-09-17",
            "close_approach_date_full": "2006-Sep-17 07:20",
            "epoch_date_close_approach": 1158477600000,
            "relative_velocity": {
                "kilometers_per_second": "17.7491635318",
                "kilometers_per_hour": "63896.9887143371",
                "miles_per_hour": "39703.1039041946"
            },
            "miss_distance": {
                "astronomical": "0.4395042841",
                "lunar": "170.9671665149",
                "kilometers": "65748904.757234867",
                "miles": "40854474.9689684846"
            },
            "orbiting_body": "Earth"
        },
        {
            "close_approach_date": "2008-08-25",
            "close_approach_date_full": "2008-Aug-25 04:47",
            "epoch_date_close_approach": 1219639620000,
            "relative_velocity": {
                "kilometers_per_second": "13.4431310237",
                "kilometers_per_hour": "48395.2716852206",
                "miles_per_hour": "30070.9397868528"
            },
            "miss_distance": {
                "astronomical": "0.0560556961",
                "lunar": "21.8056657829",
                "kilometers": "8385812.737927307",
                "miles": "5210702.4118665566"
            },
            "orbiting_body": "Earth"
        },
        {
            "close_approach_date": "2010-08-02",
            "close_approach_date_full": "2010-Aug-02 06:49",
            "epoch_date_close_approach": 1280731740000,
            "relative_velocity": {
                "kilometers_per_second": "19.5949866156",
                "kilometers_per_hour": "70541.9518160956",
                "miles_per_hour": "43832.0255603956"
            },
            "miss_distance": {
                "astronomical": "0.4726113223",
                "lunar": "183.8458043747",
                "kilometers": "70701647.153963501",
                "miles": "43931966.3891222738"
            },
            "orbiting_body": "Earth"
        },
        {
            "close_approach_date": "2116-08-04",
            "close_approach_date_full": "2116-Aug-04 23:24",
            "epoch_date_close_approach": 4626026640000,
            "relative_velocity": {
                "kilometers_per_second": "18.9366428194",
                "kilometers_per_hour": "68171.9141499008",
                "miles_per_hour": "42359.3763227537"
            },
            "miss_distance": {
                "astronomical": "0.4366648458",
                "lunar": "169.8626250162",
                "kilometers": "65324130.835558446",
                "miles": "40590532.6932047148"
            },
            "orbiting_body": "Earth"
        }
    ],
    "orbital_data": {
        "orbit_id": "12",
        "orbit_determination_date": "2017-04-06 09:03:04",
        "first_observation_date": "2008-08-23",
        "last_observation_date": "2008-09-02",
        "data_arc_in_days": 10,
        "observations_used": 54,
        "orbit_uncertainty": "8",
        "minimum_orbit_intersection": ".0533518",
        "jupiter_tisserand_invariant": "4.306",
        "epoch_osculation": "2454706.5",
        "eccentricity": ".315156562922252",
        "semi_major_axis": "1.54933267251042",
        "inclination": "23.81830226088455",
        "ascending_node_longitude": "332.6965982129258",
        "orbital_period": "704.3936723746716",
        "perihelion_distance": "1.061050312618889",
        "perihelion_argument": "8.9120806779031",
        "aphelion_distance": "2.037615032401951",
        "perihelion_time": "2454711.771844809203",
        "mean_anomaly": "357.305676916553",
        "mean_motion": ".5110778448454228",
        "equinox": "J2000",
        "orbit_class": {
            "orbit_class_type": "AMO",
            "orbit_class_description": "Near-Earth asteroid orbits similar to that of 1221 Amor",
            "orbit_class_range": "1.017 AU < q (perihelion) < 1.3 AU"
        }
    },
    "is_sentry_object": false
}